H1 CPF 01  gfz 2022 10 31 01  8041 terrasarx 
H2 0702601  6201 31698    2022 10 31 00 59 42 2022 11 05 00 00 42   120 1 1  0 0 0
H9
10 0 59883  86382.000000  0    -718029.742   4433995.522   5213057.038
10 0 59884    102.000000  0    -596882.091   5097617.628   4585451.060
10 0 59884    222.000000  0    -454490.806   5669856.722   3877146.794
10 0 59884    342.000000  0    -295031.078   6140346.091   3100586.727
10 0 59884    462.000000  0    -123144.561   6500580.171   2269431.250
10 0 59884    582.000000  0      56176.373   6744080.356   1398312.920
10 0 59884    702.000000  0     237714.675   6866517.580    502573.312
10 0 59884    822.000000  0     416160.165   6865794.448   -402014.047
10 0 59884    942.000000  0     586244.424   6742082.407  -1299530.766
10 0 59884   1062.000000  0     742873.466   6497811.664  -2174202.585
10 0 59884   1182.000000  0     881255.599   6137616.850  -3010683.263
10 0 59884   1302.000000  0     997022.595   5668239.793  -3794328.228
10 0 59884   1422.000000  0    1086340.726   5098391.873  -4511452.557
10 0 59884   1542.000000  0    1146008.955   4438579.763  -5149567.695
10 0 59884   1662.000000  0    1173542.129   3700900.036  -5697592.396
10 0 59884   1782.000000  0    1167237.075   2898808.613  -6146036.397
10 0 59884   1902.000000  0    1126220.916   2046868.565  -6487153.913
10 0 59884   2022.000000  0    1050480.780   1160484.017  -6715065.101
10 0 59884   2142.000000  0     940874.734    255623.872  -6825848.182
10 0 59884   2262.000000  0     799124.014   -651461.743  -6817599.597
10 0 59884   2382.000000  0     627786.064  -1544527.314  -6690461.892
10 0 59884   2502.000000  0     430209.651  -2407614.414  -6446620.273
10 0 59884   2622.000000  0     210472.472  -3225329.603  -6090271.234
10 0 59884   2742.000000  0     -26699.276  -3983116.725  -5627558.555
10 0 59884   2862.000000  0    -276026.268  -4667515.090  -5066476.835
10 0 59884   2982.000000  0    -531786.072  -5266401.849  -4416745.178
10 0 59884   3102.000000  0    -787936.460  -5769214.189  -3689649.845
10 0 59884   3222.000000  0   -1038249.207  -6167145.868  -2897856.922
10 0 59884   3342.000000  0   -1276451.603  -6453313.261  -2055197.930
10 0 59884   3462.000000  0   -1496372.793  -6622887.751  -1176430.691
10 0 59884   3582.000000  0   -1692090.950  -6673188.981   -276978.661
10 0 59884   3702.000000  0   -1858077.849  -6603735.753    627345.123
10 0 59884   3822.000000  0   -1989337.420  -6416253.014   1520623.611
10 0 59884   3942.000000  0   -2081534.277  -6114634.256   2387124.924
10 0 59884   4062.000000  0   -2131108.509  -5704859.710   3211588.601
10 0 59884   4182.000000  0   -2135373.510  -5194872.455   3979501.691
10 0 59884   4302.000000  0   -2092594.717  -4594416.790   4677358.633
10 0 59884   4422.000000  0   -2002047.957  -3914843.879   5292900.312
10 0 59884   4542.000000  0   -1864056.421  -3168888.000   5815329.436
10 0 59884   4662.000000  0   -1680003.887  -2370418.632   6235495.830
10 0 59884   4782.000000  0   -1452324.846  -1534177.113   6546050.402
10 0 59884   4902.000000  0   -1184473.161   -675501.011   6741568.180
10 0 59884   5022.000000  0    -880870.048    189959.684   6818636.599
10 0 59884   5142.000000  0    -546831.449   1046526.804   6775911.068
10 0 59884   5262.000000  0    -188474.826   1878777.557   6614137.681
10 0 59884   5382.000000  0     187392.787   2671821.964   6336140.917
10 0 59884   5502.000000  0     573403.232   3411569.109   5946777.103
10 0 59884   5622.000000  0     961769.820   4084979.492   5452855.022
10 0 59884   5742.000000  0    1344442.449   4680299.066   4863022.705
10 0 59884   5862.000000  0    1713272.523   5187271.063   4187621.639
10 0 59884   5982.000000  0    2060184.340   5597319.686   3438510.255
10 0 59884   6102.000000  0    2377350.719   5903704.953   2628859.872
10 0 59884   6222.000000  0    2657366.044   6101643.555   1772920.477
10 0 59884   6342.000000  0    2893415.153   6188389.243    885764.739
10 0 59884   6462.000000  0    3079430.727   6163271.677    -16984.555
10 0 59884   6582.000000  0    3210237.377   6027694.281   -919437.223
10 0 59884   6702.000000  0    3281678.815   5785089.996  -1805723.804
10 0 59884   6822.000000  0    3290724.081   5440836.994  -2660282.020
10 0 59884   6942.000000  0    3235550.818   5002135.909  -3468136.570
10 0 59884   7062.000000  0    3115602.320   4477851.300  -4215164.781
10 0 59884   7182.000000  0    2931618.311   3878324.074  -4888342.026
10 0 59884   7302.000000  0    2685638.976   3215159.644  -5475964.315
10 0 59884   7422.000000  0    2380983.781   2500996.395  -5967843.934
10 0 59884   7542.000000  0    2022204.666   1749260.079  -6355475.931
10 0 59884   7662.000000  0    1615015.571    973909.836  -6632173.062
10 0 59884   7782.000000  0    1166201.173    189181.149  -6793170.066
10 0 59884   7902.000000  0     683503.839   -590671.177  -6835698.228
10 0 59884   8022.000000  0     175491.084  -1351626.941  -6759026.661
10 0 59884   8142.000000  0    -348592.555  -2080145.370  -6564472.212
10 0 59884   8262.000000  0    -878989.025  -2763399.763  -6255380.793
10 0 59884   8382.000000  0   -1405604.238  -3389500.748  -5837076.281
10 0 59884   8502.000000  0   -1918195.205  -3947701.701  -5316777.721
10 0 59884   8622.000000  0   -2406565.672  -4428585.725  -4703487.040
10 0 59884   8742.000000  0   -2860767.708  -4824231.016  -4007844.732
10 0 59884   8862.000000  0   -3271304.076  -5128348.902  -3241954.407
10 0 59884   8982.000000  0   -3629327.101  -5336392.483  -2419179.739
10 0 59884   9102.000000  0   -3926830.553  -5445633.210  -1553915.499
10 0 59884   9222.000000  0   -4156829.216  -5455202.469   -661335.686
10 0 59884   9342.000000  0   -4313520.760  -5366096.366    242876.577
10 0 59884   9462.000000  0   -4392425.722  -5181142.917   1142811.486
10 0 59884   9582.000000  0   -4390501.852  -4904931.626   2022621.772
10 0 59884   9702.000000  0   -4306228.830  -4543706.478   2866811.104
10 0 59884   9822.000000  0   -4139661.990  -4105226.416   3660514.658
10 0 59884   9942.000000  0   -3892454.026  -3598597.012   4389767.034
10 0 59884  10062.000000  0   -3567843.242  -3034076.532   5041751.561
10 0 59884  10182.000000  0   -3170609.935  -2422862.702   5605024.460
10 0 59884  10302.000000  0   -2707002.757  -1776866.768   6069712.573
10 0 59884  10422.000000  0   -2184636.433  -1108478.256   6427682.727
10 0 59884  10542.000000  0   -1612362.236   -430323.594   6672679.604
10 0 59884  10662.000000  0   -1000113.360    244974.090   6800427.066
10 0 59884  10782.000000  0    -358732.136    905028.113   6808697.044
10 0 59884  10902.000000  0     300221.606   1537914.780   6697346.576
10 0 59884  11022.000000  0     964678.457   2132388.681   6468320.365
10 0 59884  11142.000000  0    1622279.934   2678082.408   6125618.136
10 0 59884  11262.000000  0    2260607.296   3165687.717   5675229.387
10 0 59884  11382.000000  0    2867416.492   3587117.392   5125035.704
10 0 59884  11502.000000  0    3430875.971   3935643.982   4484678.433
10 0 59884  11622.000000  0    3939799.500   4206010.440   3765393.776
10 0 59884  11742.000000  0    4383872.243   4394514.967   2979821.708
10 0 59884  11862.000000  0    4753867.081   4499064.090   2141782.154
10 0 59884  11982.000000  0    5041838.355   4519192.953   1266029.361
10 0 59884  12102.000000  0    5241295.733   4456052.926    367987.045
10 0 59884  12222.000000  0    5347349.178   4312365.278   -536532.327
10 0 59884  12342.000000  0    5356820.588   4092342.433  -1431615.022
10 0 59884  12462.000000  0    5268321.807   3801579.492  -2301534.001
10 0 59884  12582.000000  0    5082296.530   3446918.168  -3131031.713
10 0 59884  12702.000000  0    4801025.171   3036288.411  -3905591.366
10 0 59884  12822.000000  0    4428593.287   2578531.705  -4611692.383
10 0 59884  12942.000000  0    3970824.365   2083208.538  -5237043.614
10 0 59884  13062.000000  0    3435180.335   1560397.185  -5770790.035
10 0 59884  13182.000000  0    2830632.168   1020488.637  -6203691.955
10 0 59884  13302.000000  0    2167503.125    473981.255  -6528273.820
10 0 59884  13422.000000  0    1457289.805    -68720.199  -6738941.136
10 0 59884  13542.000000  0     712464.175   -597498.472  -6832068.332
10 0 59884  13662.000000  0     -53743.932  -1102708.508  -6806054.251
10 0 59884  13782.000000  0    -827576.307  -1575348.268  -6661345.048
10 0 59884  13902.000000  0   -1594987.061  -2007214.806  -6400428.306
10 0 59884  14022.000000  0   -2341892.121  -2391044.591  -6027794.983
10 0 59884  14142.000000  0   -3054422.098  -2720634.416  -5549869.851
10 0 59884  14262.000000  0   -3719176.987  -2990942.911  -4974912.765
10 0 59884  14382.000000  0   -4323479.883  -3198170.882  -4312887.483
10 0 59884  14502.000000  0   -4855622.182  -3339817.033  -3575299.080
10 0 59884  14622.000000  0   -5305096.682  -3414708.678  -2775002.827
10 0 59884  14742.000000  0   -5662813.294  -3423006.286  -1925985.416
10 0 59884  14862.000000  0   -5921290.976  -3366180.726  -1043121.886
10 0 59884  14982.000000  0   -6074821.412  -3246963.725   -141913.023
10 0 59884  15102.000000  0   -6119599.666  -3069271.914    761791.978
10 0 59884  15222.000000  0   -6053818.277  -2838106.568   1652082.693
10 0 59884  15342.000000  0   -5877719.490  -2559430.242   2513277.892
10 0 59884  15462.000000  0   -5593605.612  -2240024.200   3330209.554
10 0 59884  15582.000000  0   -5205809.392  -1887331.376   4088497.770
10 0 59884  15702.000000  0   -4720620.852  -1509286.406   4774809.002
10 0 59884  15822.000000  0   -4146176.814  -1114139.699   5377090.124
10 0 59884  15942.000000  0   -3492317.140   -710280.017   5884778.087
10 0 59884  16062.000000  0   -2770408.511   -306057.495   6288982.512
10 0 59884  16182.000000  0   -1993138.878     90388.308   6582636.027
10 0 59884  16302.000000  0   -1174288.893    471290.088   6760610.519
10 0 59884  16422.000000  0    -328485.566    829402.968   6819801.028
99
